{
  "type": "FeatureCollection",
  "features": [
    {
      "type": "Feature",
      "properties": {
        "norad_id": 25730,
        "name": "FENGYUN 1C",
        "group": "fengyun-1c-debris",
        "lat": -19.74312772469262,
        "lon": -136.6616970804472,
        "alt_km": 813.5348849088969,
        "timestamp": "2025-12-06T14:35:37.396969+00:00",
        "meta_object_name": "FENGYUN 1C",
        "meta_object_id": "1999-025A",
        "meta_epoch": "2025-12-06T03:33:23.508864",
        "meta_mean_motion": 14.25997092,
        "meta_eccentricity": 0.00108942,
        "meta_inclination": 98.8848,
        "meta_ra_of_asc_node": 46.0905,
        "meta_arg_of_pericenter": 86.1199,
        "meta_mean_anomaly": 274.1226,
        "meta_ephemeris_type": 0,
        "meta_classification_type": "U",
        "meta_norad_cat_id": 25730,
        "meta_element_set_no": 999,
        "meta_rev_at_epoch": 37043,
        "meta_bstar": 0.001967794,
        "meta_mean_motion_dot": 4.655e-05,
        "meta_mean_motion_ddot": 0,
        "tle_line1": "1 25730U 99025A   25340.14818876  .00004655  00000+0  19678-2 0  9991",
        "tle_line2": "2 25730  98.8848  46.0905 0010894  86.1199 274.1226 14.25997092370433"
      },
      "geometry": {
        "type": "Point",
        "coordinates": [
          -136.6616970804472,
          -19.74312772469262
        ]
      }
    },
    {
      "type": "Feature",
      "properties": {
        "norad_id": 29733,
        "name": "FENGYUN 1C DEB",
        "group": "fengyun-1c-debris",
        "lat": 53.64421667281607,
        "lon": -129.6442046308011,
        "alt_km": 1252.2069025739584,
        "timestamp": "2025-12-06T14:35:37.396990+00:00",
        "meta_object_name": "FENGYUN 1C DEB",
        "meta_object_id": "1999-025X",
        "meta_epoch": "2025-12-06T02:57:25.345728",
        "meta_mean_motion": 12.96446211,
        "meta_eccentricity": 0.05695186,
        "meta_inclination": 99.225,
        "meta_ra_of_asc_node": 37.1902,
        "meta_arg_of_pericenter": 217.1918,
        "meta_mean_anomaly": 172.7643,
        "meta_ephemeris_type": 0,
        "meta_classification_type": "U",
        "meta_norad_cat_id": 29733,
        "meta_element_set_no": 999,
        "meta_rev_at_epoch": 89034,
        "meta_bstar": 0.002677306,
        "meta_mean_motion_dot": 1.58e-05,
        "meta_mean_motion_ddot": 0,
        "tle_line1": "1 29733U 99025X   25340.12321002  .00001580  00000+0  26773-2 0  9994",
        "tle_line2": "2 29733  99.2250  37.1902 0569518 217.1918 172.7643 12.96446211890348"
      },
      "geometry": {
        "type": "Point",
        "coordinates": [
          -129.6442046308011,
          53.64421667281607
        ]
      }
    },
    {
      "type": "Feature",
      "properties": {
        "norad_id": 29734,
        "name": "FENGYUN 1C DEB",
        "group": "fengyun-1c-debris",
        "lat": 68.96842394201204,
        "lon": -113.32089071025302,
        "alt_km": 943.8336923563984,
        "timestamp": "2025-12-06T14:35:37.397004+00:00",
        "meta_object_name": "FENGYUN 1C DEB",
        "meta_object_id": "1999-025Y",
        "meta_epoch": "2025-12-06T01:18:26.536320",
        "meta_mean_motion": 12.91240188,
        "meta_eccentricity": 0.06146387,
        "meta_inclination": 99.1691,
        "meta_ra_of_asc_node": 271.0532,
        "meta_arg_of_pericenter": 27.0125,
        "meta_mean_anomaly": 347.0528,
        "meta_ephemeris_type": 0,
        "meta_classification_type": "U",
        "meta_norad_cat_id": 29734,
        "meta_element_set_no": 999,
        "meta_rev_at_epoch": 88462,
        "meta_bstar": 0.0072992366,
        "meta_mean_motion_dot": 4.5e-05,
        "meta_mean_motion_ddot": 0,
        "tle_line1": "1 29734U 99025Y   25340.05447380  .00004500  00000+0  72992-2 0  9994",
        "tle_line2": "2 29734  99.1691 271.0532 0614638  27.0125 347.0528 12.91240188884620"
      },
      "geometry": {
        "type": "Point",
        "coordinates": [
          -113.32089071025302,
          68.96842394201204
        ]
      }
    },
    {
      "type": "Feature",
      "properties": {
        "norad_id": 29735,
        "name": "FENGYUN 1C DEB",
        "group": "fengyun-1c-debris",
        "lat": -14.854154999912163,
        "lon": -100.89800432745467,
        "alt_km": 1853.0269740560989,
        "timestamp": "2025-12-06T14:35:37.397015+00:00",
        "meta_object_name": "FENGYUN 1C DEB",
        "meta_object_id": "1999-025Z",
        "meta_epoch": "2025-12-06T05:16:00.530112",
        "meta_mean_motion": 12.7503354,
        "meta_eccentricity": 0.06978043,
        "meta_inclination": 99.3907,
        "meta_ra_of_asc_node": 256.2629,
        "meta_arg_of_pericenter": 189.8385,
        "meta_mean_anomaly": 168.842,
        "meta_ephemeris_type": 0,
        "meta_classification_type": "U",
        "meta_norad_cat_id": 29735,
        "meta_element_set_no": 999,
        "meta_rev_at_epoch": 87332,
        "meta_bstar": 0.0018783834,
        "meta_mean_motion_dot": 1.062e-05,
        "meta_mean_motion_ddot": 0,
        "tle_line1": "1 29735U 99025Z   25340.21945058  .00001062  00000+0  18784-2 0  9997",
        "tle_line2": "2 29735  99.3907 256.2629 0697804 189.8385 168.8420 12.75033540873325"
      },
      "geometry": {
        "type": "Point",
        "coordinates": [
          -100.89800432745467,
          -14.854154999912163
        ]
      }
    },
    {
      "type": "Feature",
      "properties": {
        "norad_id": 29736,
        "name": "FENGYUN 1C DEB",
        "group": "fengyun-1c-debris",
        "lat": 50.845772672577375,
        "lon": -7.082877674652362,
        "alt_km": 1326.095293045205,
        "timestamp": "2025-12-06T14:35:37.397026+00:00",
        "meta_object_name": "FENGYUN 1C DEB",
        "meta_object_id": "1999-025AA",
        "meta_epoch": "2025-12-06T01:12:22.999680",
        "meta_mean_motion": 12.57471042,
        "meta_eccentricity": 0.07259458,
        "meta_inclination": 99.4006,
        "meta_ra_of_asc_node": 160.7283,
        "meta_arg_of_pericenter": 213.0303,
        "meta_mean_anomaly": 279.3717,
        "meta_ephemeris_type": 0,
        "meta_classification_type": "U",
        "meta_norad_cat_id": 29736,
        "meta_element_set_no": 999,
        "meta_rev_at_epoch": 86460,
        "meta_bstar": 0.0032621537,
        "meta_mean_motion_dot": 1.457e-05,
        "meta_mean_motion_ddot": 0,
        "tle_line1": "1 29736U 99025AA  25340.05026620  .00001457  00000+0  32622-2 0  9990",
        "tle_line2": "2 29736  99.4006 160.7283 0725945 213.0303 279.3717 12.57471042864601"
      },
      "geometry": {
        "type": "Point",
        "coordinates": [
          -7.082877674652362,
          50.845772672577375
        ]
      }
    },
    {
      "type": "Feature",
      "properties": {
        "norad_id": 29737,
        "name": "FENGYUN 1C DEB",
        "group": "fengyun-1c-debris",
        "lat": 41.65819639408387,
        "lon": -71.95815233058563,
        "alt_km": 1541.6246811761275,
        "timestamp": "2025-12-06T14:35:37.397037+00:00",
        "meta_object_name": "FENGYUN 1C DEB",
        "meta_object_id": "1999-025AB",
        "meta_epoch": "2025-12-06T03:03:50.641344",
        "meta_mean_motion": 12.65636144,
        "meta_eccentricity": 0.06943496,
        "meta_inclination": 99.5811,
        "meta_ra_of_asc_node": 296.2824,
        "meta_arg_of_pericenter": 152.9123,
        "meta_mean_anomaly": 229.3633,
        "meta_ephemeris_type": 0,
        "meta_classification_type": "U",
        "meta_norad_cat_id": 29737,
        "meta_element_set_no": 999,
        "meta_rev_at_epoch": 86785,
        "meta_bstar": 0.0019384767,
        "meta_mean_motion_dot": 9.09e-06,
        "meta_mean_motion_ddot": 0,
        "tle_line1": "1 29737U 99025AB  25340.12766946  .00000909  00000+0  19385-2 0  9993",
        "tle_line2": "2 29737  99.5811 296.2824 0694349 152.9123 229.3633 12.65636144867854"
      },
      "geometry": {
        "type": "Point",
        "coordinates": [
          -71.95815233058563,
          41.65819639408387
        ]
      }
    },
    {
      "type": "Feature",
      "properties": {
        "norad_id": 29738,
        "name": "FENGYUN 1C DEB",
        "group": "fengyun-1c-debris",
        "lat": 7.4807463159735725,
        "lon": -30.107124659387335,
        "alt_km": 1869.8506739234972,
        "timestamp": "2025-12-06T14:35:37.397048+00:00",
        "meta_object_name": "FENGYUN 1C DEB",
        "meta_object_id": "1999-025AC",
        "meta_epoch": "2025-12-05T10:56:52.006272",
        "meta_mean_motion": 12.6099663,
        "meta_eccentricity": 0.08637063,
        "meta_inclination": 99.4102,
        "meta_ra_of_asc_node": 147.7033,
        "meta_arg_of_pericenter": 310.2517,
        "meta_mean_anomaly": 42.6053,
        "meta_ephemeris_type": 0,
        "meta_classification_type": "U",
        "meta_norad_cat_id": 29738,
        "meta_element_set_no": 999,
        "meta_rev_at_epoch": 86125,
        "meta_bstar": 0.0033868228,
        "meta_mean_motion_dot": 2.534e-05,
        "meta_mean_motion_ddot": 0,
        "tle_line1": "1 29738U 99025AC  25339.45615748  .00002534  00000+0  33868-2 0  9999",
        "tle_line2": "2 29738  99.4102 147.7033 0863706 310.2517  42.6053 12.60996630861254"
      },
      "geometry": {
        "type": "Point",
        "coordinates": [
          -30.107124659387335,
          7.4807463159735725
        ]
      }
    }
  ]
}